full_name,epoch_mjd,a,e,i,om,w,ma,per_y
"125106 (2001 UR39)",57400,5.257898223197731,.1042682240120947,4.297796645044185,88.83605163880574,240.2774920226468,113.5567409328097,12.0566447651686
"125159 (2001 UV93)",57400,5.232255718546135,.06535824981903771,15.3362448905139,104.6477611601379,192.0138273417036,170.5269004284811,11.9685529154842
"127532 (2002 WH9)",57400,5.137453903137639,.007233832957052546,10.94917748358708,90.90570546048421,170.9358320228139,201.5757912372809,11.6447483986209
"127534 (2002 WR17)",57400,5.210878563066478,.04375726929967308,14.75768300609806,127.698007425289,42.49924565748321,295.6789791549096,11.8952789433852
"127846 (2003 FO111)",57400,5.271270568487413,.04662787697872438,6.187188318581255,276.5579723528675,97.73633517316806,195.9644046777894,12.1026692631727
"128299 (2003 YL61)",57400,5.279803358347173,.06652131229916117,21.79964258792742,104.6782335984304,155.6734162541246,205.8603143224381,12.132067672661
"128301 (2003 YZ139)",57400,5.116541292578127,.0504773835202189,26.11700570362717,84.54705942083086,213.1287087040829,173.6926372393672,11.5737188273992
"128383 (2004 JW52)",57400,5.157426006008287,.02946194707616576,9.718909958852308,207.7336140253666,90.94546782096937,289.2108968654293,11.7127186431198
"129130 (2004 YP20)",57400,5.120166880667127,.0682512015174619,1.48928846076526,170.1476537969405,120.7789296322816,179.7302921477857,11.5860227356496
"129133 (2004 YZ31)",57400,5.186408020979224,.04367749976762925,23.2015384749807,105.9796383061654,104.4347202351063,240.7772846194482,11.8115861697605
"129134 (2005 AC5)",57400,5.225761646793393,.06484279261082672,14.76397282533867,99.01282641000569,196.2835050661798,150.4961185111357,11.9462774792098
"129135 (2005 AD21)",57400,5.300002826418122,.03761492482616225,33.10117527609884,120.0489647673921,200.0427489671916,134.0647119703521,12.2017565047684
"129137 Hippolochos (2005 AP27)",57400,5.142712123844044,.0564393646175619,12.50437220640983,114.4985258841276,232.3852432136727,95.44443009522898,11.6626306968772
"129140 (2005 AO50)",57400,5.18414778442393,.01510409624253631,9.36179070949782,171.8805606455926,107.8029809161344,178.147352806111,11.8038657773766
"129142 (2005 AS60)",57400,5.221646333687028,.04876100947959397,1.297885952316107,11.15978239692025,110.1468238593013,339.1637216748539,11.9321686290444
"129144 (2005 BP25)",57400,5.14607488423788,.07822155486477195,27.72424667270264,138.6632996471589,192.8935172123128,142.0033325318101,11.6740716570473
"129145 (2005 CE)",57400,5.249525720183032,.04976580743664039,18.4309804622754,172.733677338775,354.8087016161346,304.1632093551614,12.0278583296194
"129147 (2005 CY70)",57400,5.18588485715166,.05503413144929162,16.48616305600792,342.0808108797524,307.4039037063861,180.9368627295369,11.8097990257186
"129153 (2005 EL140)",57400,5.189487744131763,.007792354997040518,26.74934626833336,164.8729815473405,208.2022282908576,95.54072997905715,11.822108427608
"129207 (2005 ND41)",57400,5.295377591067586,.0646001198971282,3.487560267555374,174.4466207805228,230.4004872307713,210.9243046466642,12.1857875469594
"129583 (1997 SV14)",57400,5.142788441297004,.08717209196125213,3.959959533052943,292.4022311736312,140.7423470389373,165.4882879380469,11.6628903066561
"129602 (1997 WA12)",57400,5.279619233864818,.03106062567008394,16.62322682168749,225.4170777923848,76.16626092792362,291.2758498802082,12.1314330492518
"130190 (2000 AG90)",57400,5.241885841183415,.04376376934979456,14.72597976511703,292.1106199809172,77.90167509440383,228.8896911021897,12.0016108325328
"130588 (2000 RD83)",57400,5.208665541239108,.05380489294934702,31.93580999058576,356.3776460318738,12.48231204065582,102.2473979937444,11.8877019916856
"130592 (2000 RT87)",57400,5.281097509905101,.01721858334312641,19.32870697889881,346.1492262687869,103.275296497875,4.503648769597521,12.1365285479883
"130648 (2000 SW76)",57400,5.113629568396523,.05982675298224044,3.950047965517136,309.477162797937,18.74043226403373,149.5195196494728,11.5638406655209
"130687 (2000 SZ131)",57400,5.200498677628271,.09431600191542473,19.06938958753373,286.4643092172646,70.9844241770095,115.5937886199547,11.8597541879185
"131447 (2001 QZ113)",57400,5.216261826790658,.04077201455334271,33.83903468945004,33.24404843984019,318.9335707397719,118.8561152897809,11.9137168973101
"131451 (2001 QD174)",57400,5.092916193725311,.07726704400387274,27.26028853745998,8.53622038284284,336.4504298246939,117.2053572909459,11.4936507623254
"131460 (2001 QE194)",57400,5.113563098063408,.06099881349300024,27.75613271656244,340.5770332316021,2.479909000055899,112.3495910376099,11.5636151946006
"131539 (2001 US133)",57400,5.205988368372989,.0903623737829425,1.576769113215546,229.2435979972093,121.1120135211823,101.1992229578367,11.8785380292946
"131546 (2001 VJ3)",57400,5.180780621126396,.03053568559503198,4.305181788162526,21.83893375711507,275.3240099192018,185.5165697603146,11.7923675261388
"131581 (2001 VG121)",57400,5.235230396576382,.04809582284326735,2.84035402630948,281.2985480890792,28.70662280261892,134.0495230811985,11.9787610321471
"131635 (2001 XW71)",57400,5.288687058963811,.06894922926705856,3.655879608400979,74.68354464496026,296.7637907286233,106.9234743656452,12.1627003420674
"133566 (2003 UZ27)",57400,5.248505917190389,.01991911602445213,26.60850030368579,287.6374310710983,356.0447409994994,199.6441000260689,12.0243535986677
"133853 (2003 YQ133)",57400,5.204228095994559,.07857639863037558,15.85621250227905,331.9349142352797,3.410100155744068,140.7526982705672,11.8725139009324
"133862 (2004 BR38)",57400,5.167250325406206,.0105412223526071,31.1615732398175,110.0938476506769,286.0799392030759,85.60504366802527,11.7462017032956
"134077 (2004 XW71)",57400,5.198351969636415,.0969484196812167,18.121210039579,105.8141587165501,163.2679219917806,180.1888265722182,11.8524115839246
"134251 (2006 AN34)",57400,5.131141188277794,.08783171455589217,26.35098291986066,148.6205316450555,157.1208468849483,152.3146956224027,11.6232920338271
"134269 (2006 BP114)",57400,5.205255731901146,.04619049742753429,2.620439400623656,173.996390747963,36.21007459008905,239.3572898120945,11.8760306253044
"134329 Cycnos (2377 T-3)",57400,5.171458582946653,.07954245456750254,17.38882235246949,17.59362293957295,279.3554898938196,166.6602606790814,11.7605539511124
"134419 Hippothous (1998 MV47)",57400,5.25539330420213,.1774620872395892,8.38388767054003,122.2374871458634,132.6892606452674,192.0572423470182,12.0480299194876
"134720 (2000 AX29)",57400,5.226254512034698,.08637652535647006,27.55226419999502,300.8339924062317,54.65371627022598,231.3782790194815,11.9479675803349
"134749 (2000 BT24)",57400,5.283629447549843,.09441461893563101,20.46174436000623,336.7855874643067,34.86037380687834,211.5299230252526,12.1452575904683
"134767 (2000 CS113)",57400,5.318700694619116,.04348935224250309,10.07532191549953,118.8016230046899,309.4514773489742,161.3651235235935,12.2663832447757
"134957 (2001 DN18)",57400,5.250263392884552,.04921157313164284,11.0010180424036,47.79184953726109,62.87134783337977,137.8061327734441,12.0303936827863
"134965 (2001 DQ99)",57400,5.131210892058574,.03282531014310871,27.51219721751281,304.762671271547,135.1539913221544,159.4955148944519,11.6235288788451
"135540 (2002 CC245)",57400,5.129095730989297,.05291508508207958,12.63130774764101,212.3958692827517,179.2757327738836,186.5463334493803,11.6163425336117
"135547 (2002 EN14)",57400,5.2456209788347,.05917896967391485,21.66406382757579,4.085795659361846,7.659652373165713,218.6235791731471,12.0144408486178
"135593 (2002 GW125)",57400,5.190994874516205,.05198612456218367,3.450665534266879,240.1520698538483,186.7497032937059,176.9070541205515,11.8272588643962
"135594 (2002 GK147)",57400,5.248484915523809,.05259020116431412,9.680763181602209,146.9899030077873,258.0488305253944,197.8404745568713,12.0242814263534
"136557 Neleus (5214 T-2)",57400,5.206743009074631,.06279299692169429,9.963185569851666,277.7937196187253,163.9015148480953,152.4900009873877,11.8811209258972
"137879 (2000 AJ114)",57400,5.261375043226071,.06999800436226342,12.36993156561223,268.3694154297074,200.7810595659629,125.1523239146304,12.0686055462315
"137954 (2000 CK13)",57400,5.174115931941165,.04233877381069303,5.703375080886788,144.1352085975337,264.7321086519126,206.0442149955102,11.769619839409
"138031 (2000 DK9)",57400,5.255427975728418,.03668557171645648,2.955953341020032,158.0293395261722,302.3741814373813,160.9575830558168,12.0481491467987
"138981 (2001 CE47)",57400,5.118614745723977,.06537524413431159,8.732717172351423,146.0327116706187,286.9117310735874,172.1446526975689,11.5807548288889
"139009 (2001 DH42)",57400,5.252290396612517,.01233618467004859,5.453768348117697,169.0914060170984,263.5333013579233,166.8194526064785,12.03736133504
"141523 (2002 EQ149)",57400,5.120466660279073,.02570163129786261,2.713594789029096,97.00026965967513,310.567027747477,202.3597005662858,11.5870402720851
"141577 (2002 GS149)",57400,5.228656704871061,.04478291295128129,3.532820852146602,356.804031006391,44.74544388385527,211.5668357844118,11.9562061630169
"141584 (2002 GU178)",57400,5.133117950129073,.02323166027476884,3.136356954121386,277.9565443026188,168.8658838745651,176.4069520723001,11.6300094556065
"144840 (2004 JX35)",57400,5.336562482366831,.0511107432788574,4.341420412854417,251.5874132063496,70.58526562752165,265.5466702619018,12.3282263698598
"150872 (2001 ST201)",57400,5.208371611185178,.0933535694070196,5.136516570533036,5.612516580320214,349.1593297532984,74.8288730350786,11.8866957540328
"150876 (2001 SA220)",57400,5.16598014479365,.07476473490126255,4.13412364181946,28.88833221704138,313.2823309627263,98.28646475746714,11.7418709045656
"151883 (2003 WQ25)",57400,5.156852685985653,.042518110599907,5.520292633804602,76.4823568390109,309.8114721638997,33.32173401662848,11.7107656486941
"151884 (2003 WO40)",57400,5.195289630292771,.03344067822923476,15.26003377310392,56.85825037197574,261.9561257845539,112.2074322267515,11.8419397765598
